{"fetched_at":"2026-03-30T13:17:50Z","count":15418,"tles":[{"name":"STARLINK-1635","line1":"1 46172U 20057BH  26087.50735595  .00096995  00000+0  95324-3 0  9999","line2":"2 46172  53.0424 165.5197 0007443  35.4077 324.7430 15.65239185311090","category":"Starlink"}]}